SL-8 R/B                
1 21088U 91006B   26082.48770074  .00000106  00000+0  90685-4 0  9998
2 21088  82.9455 159.7881 0022204   0.3297  10.1471 13.77496299765979
OKEAN-3                 
1 21397U 91039A   26082.37666733  .00002766  00000+0  19335-3 0  9997
2 21397  82.5171 323.5839 0012543 285.8960  74.0884 15.04888343867099
COSMOS 2151             
1 21422U 91042A   26082.49075593  .00002134  00000+0  16860-3 0  9990
2 21422  82.4941  70.3588 0013019  21.2048 338.9713 15.00158311865269
SL-14 R/B               
1 21423U 91042B   26082.33037214  .00000516  00000+0  62244-4 0  9992
2 21423  82.4947 207.3928 0016742 191.5367 168.5466 14.81843109855093
ERS-1                   
1 21574U 91050A   26082.52998076  .00000296  00000+0  10915-3 0  9993
2 21574  98.7871 101.1119 0032410 159.4219 200.8282 14.39459330817724
ARIANE 40 R/B           
1 21610U 91050F   26082.13193363  .00000299  00000+0  10202-3 0  9999
2 21610  98.1984 133.8622 0003879  51.6014 308.5525 14.42902894820933
INTERCOSMOS 25          
1 21819U 91086A   26082.36082827  .00001728  00000+0  33144-3 0  9994
2 21819  82.6022 301.7446 1486735  87.4762 289.5048 12.12046124498343
SL-8 R/B                
1 21876U 92008B   26082.45863017  .00000004  00000+0 -11825-4 0  9990
2 21876  82.9224 257.5327 0035928  96.1344 291.8488 13.75969558711319
SL-8 R/B                
1 21938U 92020B   26082.42984272  .00000034  00000+0  19518-4 0  9996
2 21938  82.9315 143.5605 0027605 258.5903 112.5981 13.75550320703029
USA 81                  
1 21949U 92023A   26082.35089757  .00000162  00000+0  52770-4 0  9996
2 21949  85.0058 123.5582 0002012  68.9375 291.2033 14.32372189 96748
COSMOS 2219             
1 22219U 92076A   26082.45638584 -.00000166  00000+0 -62582-4 0  9992
2 22219  71.0636 349.2925 0018178 187.3376 172.7484 14.14092621720322
SL-16 R/B               
1 22220U 92076B   26082.45365544  .00000208  00000+0  12747-3 0  9999
2 22220  71.0007 159.3827 0010614  70.7403 300.1113 14.16862919723786
COSMOS 2221             
1 22236U 92080A   26082.48082217  .00002072  00000+0  18089-3 0  9993
2 22236  82.5002 265.8667 0015161 141.9472 218.2824 14.96254240782850
SL-16 R/B               
1 22285U 92093B   26082.16683237  .00000352  00000+0  20482-3 0  9994
2 22285  71.0237 335.9762 0006335 280.2889  79.7520 14.15450887715062
COSMOS 2228             
1 22286U 92094A   26082.48798152  .00002471  00000+0  21062-3 0  9993
2 22286  82.5181 224.0980 0016633 254.1662 105.7727 14.97257983778126
SL-16 R/B               
1 22566U 93016B   26082.56195630 -.00000211  00000+0 -83795-4 0  9994
2 22566  71.0081 186.0472 0012357 296.1171  63.8680 14.15306165704131
COSMOS 2242             
1 22626U 93024A   26082.47611962  .00002177  00000+0  18855-3 0  9996
2 22626  82.5153 253.5257 0014915 258.1234 101.8316 14.96604604782454
