[{"OBJECT_NAME":"SL-8 R/B","OBJECT_ID":"1991-006B","EPOCH":"2026-03-23T11:42:17.343936","MEAN_MOTION":13.77496299,"ECCENTRICITY":0.0022204,"INCLINATION":82.9455,"RA_OF_ASC_NODE":159.7881,"ARG_OF_PERICENTER":0.3297,"MEAN_ANOMALY":10.1471,"EPHEMERIS_TYPE":0,"CLASSIFICATION_TYPE":"U","NORAD_CAT_ID":21088,"ELEMENT_SET_NO":999,"REV_AT_EPOCH":76597,"BSTAR":9.0685e-5,"MEAN_MOTION_DOT":1.06e-6,"MEAN_MOTION_DDOT":0},{"OBJECT_NAME":"OKEAN-3","OBJECT_ID":"1991-039A","EPOCH":"2026-03-23T09:02:24.057312","MEAN_MOTION":15.04888343,"ECCENTRICITY":0.0012543,"INCLINATION":82.5171,"RA_OF_ASC_NODE":323.5839,"ARG_OF_PERICENTER":285.896,"MEAN_ANOMALY":74.0884,"EPHEMERIS_TYPE":0,"CLASSIFICATION_TYPE":"U","NORAD_CAT_ID":21397,"ELEMENT_SET_NO":999,"REV_AT_EPOCH":86709,"BSTAR":0.00019335,"MEAN_MOTION_DOT":2.766e-5,"MEAN_MOTION_DDOT":0},{"OBJECT_NAME":"COSMOS 2151","OBJECT_ID":"1991-042A","EPOCH":"2026-03-23T11:46:41.312352","MEAN_MOTION":15.00158311,"ECCENTRICITY":0.0013019,"INCLINATION":82.4941,"RA_OF_ASC_NODE":70.3588,"ARG_OF_PERICENTER":21.2048,"MEAN_ANOMALY":338.9713,"EPHEMERIS_TYPE":0,"CLASSIFICATION_TYPE":"U","NORAD_CAT_ID":21422,"ELEMENT_SET_NO":999,"REV_AT_EPOCH":86526,"BSTAR":0.0001686,"MEAN_MOTION_DOT":2.134e-5,"MEAN_MOTION_DDOT":0},{"OBJECT_NAME":"SL-14 R/B","OBJECT_ID":"1991-042B","EPOCH":"2026-03-23T07:55:44.152896","MEAN_MOTION":14.81843109,"ECCENTRICITY":0.0016742,"INCLINATION":82.4947,"RA_OF_ASC_NODE":207.3928,"ARG_OF_PERICENTER":191.5367,"MEAN_ANOMALY":168.5466,"EPHEMERIS_TYPE":0,"CLASSIFICATION_TYPE":"U","NORAD_CAT_ID":21423,"ELEMENT_SET_NO":999,"REV_AT_EPOCH":85509,"BSTAR":6.2244e-5,"MEAN_MOTION_DOT":5.16e-6,"MEAN_MOTION_DDOT":0},{"OBJECT_NAME":"ERS-1","OBJECT_ID":"1991-050A","EPOCH":"2026-03-23T12:43:10.337664","MEAN_MOTION":14.3945933,"ECCENTRICITY":0.003241,"INCLINATION":98.7871,"RA_OF_ASC_NODE":101.1119,"ARG_OF_PERICENTER":159.4219,"MEAN_ANOMALY":200.8282,"EPHEMERIS_TYPE":0,"CLASSIFICATION_TYPE":"U","NORAD_CAT_ID":21574,"ELEMENT_SET_NO":999,"REV_AT_EPOCH":81772,"BSTAR":0.00010915,"MEAN_MOTION_DOT":2.96e-6,"MEAN_MOTION_DDOT":0},{"OBJECT_NAME":"ARIANE 40 R/B","OBJECT_ID":"1991-050F","EPOCH":"2026-03-23T03:09:59.065632","MEAN_MOTION":14.42902894,"ECCENTRICITY":0.00038799,"INCLINATION":98.1984,"RA_OF_ASC_NODE":133.8622,"ARG_OF_PERICENTER":51.6014,"MEAN_ANOMALY":308.5525,"EPHEMERIS_TYPE":0,"CLASSIFICATION_TYPE":"U","NORAD_CAT_ID":21610,"ELEMENT_SET_NO":999,"REV_AT_EPOCH":82093,"BSTAR":0.00010201985,"MEAN_MOTION_DOT":2.99e-6,"MEAN_MOTION_DDOT":0},{"OBJECT_NAME":"INTERCOSMOS 25","OBJECT_ID":"1991-086A","EPOCH":"2026-03-23T08:39:35.562528","MEAN_MOTION":12.12046124,"ECCENTRICITY":0.1486735,"INCLINATION":82.6022,"RA_OF_ASC_NODE":301.7446,"ARG_OF_PERICENTER":87.4762,"MEAN_ANOMALY":289.5048,"EPHEMERIS_TYPE":0,"CLASSIFICATION_TYPE":"U","NORAD_CAT_ID":21819,"ELEMENT_SET_NO":999,"REV_AT_EPOCH":49834,"BSTAR":0.00033144,"MEAN_MOTION_DOT":1.728e-5,"MEAN_MOTION_DDOT":0},{"OBJECT_NAME":"SL-8 R/B","OBJECT_ID":"1992-008B","EPOCH":"2026-03-23T11:00:25.646688","MEAN_MOTION":13.75969558,"ECCENTRICITY":0.0035928,"INCLINATION":82.9224,"RA_OF_ASC_NODE":257.5327,"ARG_OF_PERICENTER":96.1344,"MEAN_ANOMALY":291.8488,"EPHEMERIS_TYPE":0,"CLASSIFICATION_TYPE":"U","NORAD_CAT_ID":21876,"ELEMENT_SET_NO":999,"REV_AT_EPOCH":71131,"BSTAR":-1.1825e-5,"MEAN_MOTION_DOT":4.0e-8,"MEAN_MOTION_DDOT":0},{"OBJECT_NAME":"SL-8 R/B","OBJECT_ID":"1992-020B","EPOCH":"2026-03-23T10:18:58.411008","MEAN_MOTION":13.7555032,"ECCENTRICITY":0.0027605,"INCLINATION":82.9315,"RA_OF_ASC_NODE":143.5605,"ARG_OF_PERICENTER":258.5903,"MEAN_ANOMALY":112.5981,"EPHEMERIS_TYPE":0,"CLASSIFICATION_TYPE":"U","NORAD_CAT_ID":21938,"ELEMENT_SET_NO":999,"REV_AT_EPOCH":70302,"BSTAR":1.9518e-5,"MEAN_MOTION_DOT":3.4e-7,"MEAN_MOTION_DDOT":0},{"OBJECT_NAME":"USA 81","OBJECT_ID":"1992-023A","EPOCH":"2026-03-23T08:25:17.550048","MEAN_MOTION":14.32372189,"ECCENTRICITY":0.0002012,"INCLINATION":85.0058,"RA_OF_ASC_NODE":123.5582,"ARG_OF_PERICENTER":68.9375,"MEAN_ANOMALY":291.2033,"EPHEMERIS_TYPE":0,"CLASSIFICATION_TYPE":"U","NORAD_CAT_ID":21949,"ELEMENT_SET_NO":999,"REV_AT_EPOCH":9674,"BSTAR":5.277e-5,"MEAN_MOTION_DOT":1.62e-6,"MEAN_MOTION_DDOT":0},{"OBJECT_NAME":"COSMOS 2219","OBJECT_ID":"1992-076A","EPOCH":"2026-03-23T10:57:11.736576","MEAN_MOTION":14.14092621,"ECCENTRICITY":0.0018178,"INCLINATION":71.0636,"RA_OF_ASC_NODE":349.2925,"ARG_OF_PERICENTER":187.3376,"MEAN_ANOMALY":172.7484,"EPHEMERIS_TYPE":0,"CLASSIFICATION_TYPE":"U","NORAD_CAT_ID":22219,"ELEMENT_SET_NO":999,"REV_AT_EPOCH":72032,"BSTAR":-6.2582e-5,"MEAN_MOTION_DOT":-1.66e-6,"MEAN_MOTION_DDOT":0},{"OBJECT_NAME":"SL-16 R/B","OBJECT_ID":"1992-076B","EPOCH":"2026-03-23T10:53:15.830016","MEAN_MOTION":14.16862919,"ECCENTRICITY":0.0010614,"INCLINATION":71.0007,"RA_OF_ASC_NODE":159.3827,"ARG_OF_PERICENTER":70.7403,"MEAN_ANOMALY":300.1113,"EPHEMERIS_TYPE":0,"CLASSIFICATION_TYPE":"U","NORAD_CAT_ID":22220,"ELEMENT_SET_NO":999,"REV_AT_EPOCH":72378,"BSTAR":0.00012747,"MEAN_MOTION_DOT":2.08e-6,"MEAN_MOTION_DDOT":0},{"OBJECT_NAME":"COSMOS 2221","OBJECT_ID":"1992-080A","EPOCH":"2026-03-23T11:32:23.035488","MEAN_MOTION":14.9625424,"ECCENTRICITY":0.0015161,"INCLINATION":82.5002,"RA_OF_ASC_NODE":265.8667,"ARG_OF_PERICENTER":141.9472,"MEAN_ANOMALY":218.2824,"EPHEMERIS_TYPE":0,"CLASSIFICATION_TYPE":"U","NORAD_CAT_ID":22236,"ELEMENT_SET_NO":999,"REV_AT_EPOCH":78285,"BSTAR":0.00018089,"MEAN_MOTION_DOT":2.072e-5,"MEAN_MOTION_DDOT":0},{"OBJECT_NAME":"SL-16 R/B","OBJECT_ID":"1992-093B","EPOCH":"2026-03-23T04:00:14.316768","MEAN_MOTION":14.15450887,"ECCENTRICITY":0.00063357,"INCLINATION":71.0237,"RA_OF_ASC_NODE":335.9762,"ARG_OF_PERICENTER":280.2889,"MEAN_ANOMALY":79.752,"EPHEMERIS_TYPE":0,"CLASSIFICATION_TYPE":"U","NORAD_CAT_ID":22285,"ELEMENT_SET_NO":999,"REV_AT_EPOCH":71506,"BSTAR":0.00020481882,"MEAN_MOTION_DOT":3.52e-6,"MEAN_MOTION_DDOT":0},{"OBJECT_NAME":"COSMOS 2228","OBJECT_ID":"1992-094A","EPOCH":"2026-03-23T11:42:41.603328","MEAN_MOTION":14.97257983,"ECCENTRICITY":0.0016633,"INCLINATION":82.5181,"RA_OF_ASC_NODE":224.098,"ARG_OF_PERICENTER":254.1662,"MEAN_ANOMALY":105.7727,"EPHEMERIS_TYPE":0,"CLASSIFICATION_TYPE":"U","NORAD_CAT_ID":22286,"ELEMENT_SET_NO":999,"REV_AT_EPOCH":77812,"BSTAR":0.00021062,"MEAN_MOTION_DOT":2.471e-5,"MEAN_MOTION_DDOT":0},{"OBJECT_NAME":"SL-16 R/B","OBJECT_ID":"1993-016B","EPOCH":"2026-03-23T13:29:13.024320","MEAN_MOTION":14.15306165,"ECCENTRICITY":0.0012357,"INCLINATION":71.0081,"RA_OF_ASC_NODE":186.0472,"ARG_OF_PERICENTER":296.1171,"MEAN_ANOMALY":63.868,"EPHEMERIS_TYPE":0,"CLASSIFICATION_TYPE":"U","NORAD_CAT_ID":22566,"ELEMENT_SET_NO":999,"REV_AT_EPOCH":70413,"BSTAR":-8.3795e-5,"MEAN_MOTION_DOT":-2.11e-6,"MEAN_MOTION_DDOT":0},{"OBJECT_NAME":"COSMOS 2242","OBJECT_ID":"1993-024A","EPOCH":"2026-03-23T11:25:36.735168","MEAN_MOTION":14.96604604,"ECCENTRICITY":0.0014915,"INCLINATION":82.5153,"RA_OF_ASC_NODE":253.5257,"ARG_OF_PERICENTER":258.1234,"MEAN_ANOMALY":101.8316,"EPHEMERIS_TYPE":0,"CLASSIFICATION_TYPE":"U","NORAD_CAT_ID":22626,"ELEMENT_SET_NO":999,"REV_AT_EPOCH":78245,"BSTAR":0.00018855,"MEAN_MOTION_DOT":2.177e-5,"MEAN_MOTION_DDOT":0}]
